{"type": "FeatureCollection", "features": [ {"type": "Feature", "properties": {"norad_id": 65590, "name": "COSMOS 2596 (708K)", "group": "gnss", "lat": 26.659778445412464, "lon": -25.096356349629882, "alt_km": 19122.546285752458, "timestamp": "2025-12-20T05:41:50.274353+00:00", "meta": {"OBJECT_NAME": "COSMOS 2596 (708K)", "OBJECT_ID": "2025-206B", "EPOCH": "2025-12-19T12:37:39.326304", "MEAN_MOTION": 2.13100498, "ECCENTRICITY": 0.0014057, "INCLINATION": 64.7407, "RA_OF_ASC_NODE": 321.239, "ARG_OF_PERICENTER": 306.9222, "MEAN_ANOMALY": 257.0198, "EPHEMERIS_TYPE": 0, "CLASSIFICATION_TYPE": "U", "NORAD_CAT_ID": 65590, "ELEMENT_SET_NO": 999, "REV_AT_EPOCH": 208, "BSTAR": 0, "MEAN_MOTION_DOT": -5.9e-07, "MEAN_MOTION_DDOT": 0}, "tle": {"line1": "1 65590U 25206B   25353.52614961 -.00000059  00000+0  00000+0 0  9995", "line2": "2 65590  64.7407 321.2390 0014057 306.9222 257.0198  2.13100498  2086"}}, "geometry": {"type": "Point", "coordinates": [-25.096356349629882, 26.659778445412464]}}, {"type": "Feature", "properties": {"norad_id": 67160, "name": "GALILEO A", "group": "gnss", "lat": -32.70995026267345, "lon": -45.287461683888665, "alt_km": 22924.284065425538, "timestamp": "2025-12-20T05:41:50.274365+00:00", "meta": {"OBJECT_NAME": "GALILEO A", "OBJECT_ID": "2025-302A", "EPOCH": "2025-12-18T03:30:19.486368", "MEAN_MOTION": 1.72906186, "ECCENTRICITY": 0.00084238, "INCLINATION": 54.2406, "RA_OF_ASC_NODE": 107.2544, "ARG_OF_PERICENTER": 237.6458, "MEAN_ANOMALY": 122.2317, "EPHEMERIS_TYPE": 0, "CLASSIFICATION_TYPE": "U", "NORAD_CAT_ID": 67160, "ELEMENT_SET_NO": 999, "REV_AT_EPOCH": 2, "BSTAR": 0, "MEAN_MOTION_DOT": -7e-08, "MEAN_MOTION_DDOT": 0}, "tle": {"line1": "1 67160U 25302A   25352.14605887 -.00000007  00000+0  00000+0 0  9994", "line2": "2 67160  54.2406 107.2544 0008423 237.6458 122.2317  1.72906186    28"}}, "geometry": {"type": "Point", "coordinates": [-45.287461683888665, -32.70995026267345]}}, {"type": "Feature", "properties": {"norad_id": 67161, "name": "GALILEO B", "group": "gnss", "lat": -33.20409590082338, "lon": -44.72933780240525, "alt_km": 22929.293140582296, "timestamp": "2025-12-20T05:41:50.274378+00:00", "meta": {"OBJECT_NAME": "GALILEO B", "OBJECT_ID": "2025-302B", "EPOCH": "2025-12-19T07:14:53.290752", "MEAN_MOTION": 1.72972192, "ECCENTRICITY": 0.00045866, "INCLINATION": 54.2272, "RA_OF_ASC_NODE": 107.1916, "ARG_OF_PERICENTER": 255.0301, "MEAN_ANOMALY": 104.8802, "EPHEMERIS_TYPE": 0, "CLASSIFICATION_TYPE": "U", "NORAD_CAT_ID": 67161, "ELEMENT_SET_NO": 999, "REV_AT_EPOCH": 5, "BSTAR": 0, "MEAN_MOTION_DOT": -5e-08, "MEAN_MOTION_DDOT": 0}, "tle": {"line1": "1 67161U 25302B   25353.30200568 -.00000005  00000+0  00000+0 0  9999", "line2": "2 67161  54.2272 107.1916 0004586 255.0301 104.8802  1.72972192    57"}}, "geometry": {"type": "Point", "coordinates": [-44.72933780240525, -33.20409590082338]}}]}